start=new Date('2021-09-30T00:00:00.000Z').valueOf();
sats=[{"GP_ID":"185792797","REV_AT_EPOCH":"5289","TIME_SYSTEM":"UTC","MEAN_MOTION":"15.06404322","OBJECT_TYPE":"PAYLOAD","ECCENTRICITY":"0.00038940","INCLINATION":"53.0558","RCS_SIZE":"LARGE","COUNTRY_CODE":"US","MEAN_ANOMALY":"242.4299","NORAD_CAT_ID":"46719","OBJECT_ID":"2020-073BB","PERIOD":"95.592","LAUNCH_DATE":"2020-10-18","EPHEMERIS_TYPE":"0","BSTAR":"0.00001261000000","ELEMENT_SET_NO":"999","MEAN_MOTION_DDOT":"0.0000000000000","ARG_OF_PERICENTER":"117.7085","CLASSIFICATION_TYPE":"U","REF_FRAME":"TEME","FILE":"3134986","OBJECT_NAME":"STARLINK-1822","MEAN_ELEMENT_THEORY":"SGP4","TLE_LINE1":"1 46719U 20073BB  21272.38898672 -.00000095  00000-0  12610-4 0  9993","MEAN_MOTION_DOT":"-0.00000095","SEMIMAJOR_AXIS":"6925.335","DECAY_DATE":null,"PERIAPSIS":"544.504","RA_OF_ASC_NODE":"304.4027","TLE_LINE2":"2 46719  53.0558 304.4027 0003894 117.7085 242.4299 15.06404322 52891","APOAPSIS":"549.897","SITE":"AFETR","EPOCH":"2021-09-29T09:20:08.452608","CENTER_NAME":"EARTH"},{"RA_OF_ASC_NODE":"300.4200","DECAY_DATE":null,"SEMIMAJOR_AXIS":"6822.581","PERIAPSIS":"443.811","TLE_LINE2":"2 46720  53.0546 300.4200 0000931 319.4839  40.6095 15.40563853 52947","CENTER_NAME":"EARTH","EPOCH":"2021-09-29T08:44:41.085024","SITE":"AFETR","APOAPSIS":"445.081","REF_FRAME":"TEME","TLE_LINE1":"1 46720U 20073BC  21272.36436441  .00008716  00000-0  22074-3 0  9996","FILE":"3134986","OBJECT_NAME":"STARLINK-1823","MEAN_ELEMENT_THEORY":"SGP4","MEAN_MOTION_DOT":"0.00008716","COUNTRY_CODE":"US","RCS_SIZE":"LARGE","LAUNCH_DATE":"2020-10-18","PERIOD":"93.472","OBJECT_ID":"2020-073BC","NORAD_CAT_ID":"46720","MEAN_ANOMALY":"40.6095","MEAN_MOTION_DDOT":"0.0000000000000","ELEMENT_SET_NO":"999","BSTAR":"0.00022074000000","EPHEMERIS_TYPE":"0","CLASSIFICATION_TYPE":"U","ARG_OF_PERICENTER":"319.4839","TIME_SYSTEM":"UTC","REV_AT_EPOCH":"5294","GP_ID":"185792548","OBJECT_TYPE":"PAYLOAD","MEAN_MOTION":"15.40563853","ECCENTRICITY":"0.00009310","INCLINATION":"53.0546"},{"ARG_OF_PERICENTER":"220.3648","CLASSIFICATION_TYPE":"U","EPHEMERIS_TYPE":"0","ELEMENT_SET_NO":"999","MEAN_MOTION_DDOT":"0.0000172650000","BSTAR":"0.00010000000000","OBJECT_ID":"2020-073BD","NORAD_CAT_ID":"46721","MEAN_ANOMALY":"261.9231","LAUNCH_DATE":"2020-10-18","PERIOD":"89.338","RCS_SIZE":"LARGE","COUNTRY_CODE":"US","INCLINATION":"52.9915","ECCENTRICITY":"0.00059080","OBJECT_TYPE":"PAYLOAD","MEAN_MOTION":"16.11851116","GP_ID":"185770287","TIME_SYSTEM":"UTC","REV_AT_EPOCH":"5548","SITE":"AFETR","EPOCH":"2021-09-28T22:38:54.712320","APOAPSIS":"245.683","CENTER_NAME":"EARTH","TLE_LINE2":"2 46721  52.9915 147.4420 0005908 220.3648 261.9231 16.11851116 55489","DECAY_DATE":null,"PERIAPSIS":"237.861","SEMIMAJOR_AXIS":"6619.907","RA_OF_ASC_NODE":"147.4420","MEAN_MOTION_DOT":"0.00106704","FILE":"3134981","OBJECT_NAME":"STARLINK-1824","MEAN_ELEMENT_THEORY":"SGP4","TLE_LINE1":"1 46721U 20073BD  21271.94368880  .00106704  17265-4  10000-3 0  9998","REF_FRAME":"TEME"},{"INCLINATION":"53.0562","ECCENTRICITY":"0.00009170","OBJECT_TYPE":"PAYLOAD","MEAN_MOTION":"15.06391167","GP_ID":"185792046","TIME_SYSTEM":"UTC","REV_AT_EPOCH":"5231","ARG_OF_PERICENTER":"102.7110","CLASSIFICATION_TYPE":"U","EPHEMERIS_TYPE":"0","ELEMENT_SET_NO":"999","MEAN_MOTION_DDOT":"0.0000000000000","BSTAR":"0.00006008100000","OBJECT_ID":"2020-073BE","MEAN_ANOMALY":"257.3981","NORAD_CAT_ID":"46722","LAUNCH_DATE":"2020-10-18","PERIOD":"95.593","RCS_SIZE":"LARGE","COUNTRY_CODE":"US","MEAN_MOTION_DOT":"0.00000614","FILE":"3134986","OBJECT_NAME":"STARLINK-1825","MEAN_ELEMENT_THEORY":"SGP4","TLE_LINE1":"1 46722U 20073BE  21271.83471723  .00000614  00000-0  60081-4 0  9991","REF_FRAME":"TEME","EPOCH":"2021-09-28T20:01:59.568672","SITE":"AFETR","APOAPSIS":"547.876","CENTER_NAME":"EARTH","TLE_LINE2":"2 46722  53.0562 341.8911 0000917 102.7110 257.3981 15.06391167 52315","PERIAPSIS":"546.606","DECAY_DATE":null,"SEMIMAJOR_AXIS":"6925.376","RA_OF_ASC_NODE":"341.8911"},{"ECCENTRICITY":"0.00010460","INCLINATION":"53.0558","TIME_SYSTEM":"UTC","REV_AT_EPOCH":"5350","GP_ID":"185801246","MEAN_MOTION":"15.06382081","OBJECT_TYPE":"PAYLOAD","BSTAR":"0.00000383220000","MEAN_MOTION_DDOT":"0.0000000000000","ELEMENT_SET_NO":"999","EPHEMERIS_TYPE":"0","CLASSIFICATION_TYPE":"U","ARG_OF_PERICENTER":"85.3528","COUNTRY_CODE":"US","RCS_SIZE":"LARGE","PERIOD":"95.593","LAUNCH_DATE":"2020-10-18","MEAN_ANOMALY":"274.7581","NORAD_CAT_ID":"46723","OBJECT_ID":"2020-073BF","MEAN_MOTION_DOT":"-0.00000224","REF_FRAME":"TEME","TLE_LINE1":"1 46723U 20073BF  21272.78939116 -.00000224  00000-0  38322-5 0  9994","FILE":"3135318","OBJECT_NAME":"STARLINK-1826","MEAN_ELEMENT_THEORY":"SGP4","TLE_LINE2":"2 46723  53.0558 297.6112 0001046  85.3528 274.7581 15.06382081 53501","CENTER_NAME":"EARTH","APOAPSIS":"547.993","SITE":"AFETR","EPOCH":"2021-09-29T18:56:43.396224","RA_OF_ASC_NODE":"297.6112","SEMIMAJOR_AXIS":"6925.403","DECAY_DATE":null,"PERIAPSIS":"546.544"},{"TLE_LINE2":"2 46724  53.0505 283.4026 0007952 266.7248  93.2859 15.69951183 53198","CENTER_NAME":"EARTH","APOAPSIS":"364.396","SITE":"AFETR","EPOCH":"2021-09-29T11:00:46.894176","RA_OF_ASC_NODE":"283.4026","SEMIMAJOR_AXIS":"6737.174","DECAY_DATE":null,"PERIAPSIS":"353.681","MEAN_MOTION_DOT":"0.00700556","REF_FRAME":"TEME","TLE_LINE1":"1 46724U 20073BG  21272.45887609  .00700556  00000-0  52591-2 0  9993","FILE":"3134986","MEAN_ELEMENT_THEORY":"SGP4","OBJECT_NAME":"STARLINK-1827","BSTAR":"0.00525910000000","ELEMENT_SET_NO":"999","MEAN_MOTION_DDOT":"0.0000000000000","EPHEMERIS_TYPE":"0","CLASSIFICATION_TYPE":"U","ARG_OF_PERICENTER":"266.7248","COUNTRY_CODE":"US","RCS_SIZE":"LARGE","PERIOD":"91.723","LAUNCH_DATE":"2020-10-18","NORAD_CAT_ID":"46724","MEAN_ANOMALY":"93.2859","OBJECT_ID":"2020-073BG","ECCENTRICITY":"0.00079520","INCLINATION":"53.0505","TIME_SYSTEM":"UTC","REV_AT_EPOCH":"5319","GP_ID":"185793048","MEAN_MOTION":"15.69951183","OBJECT_TYPE":"PAYLOAD"},{"OBJECT_ID":"2020-073BH","MEAN_ANOMALY":"262.1377","NORAD_CAT_ID":"46725","LAUNCH_DATE":"2020-10-18","PERIOD":"95.592","RCS_SIZE":"LARGE","COUNTRY_CODE":"US","ARG_OF_PERICENTER":"97.9723","CLASSIFICATION_TYPE":"U","EPHEMERIS_TYPE":"0","MEAN_MOTION_DDOT":"0.0000000000000","ELEMENT_SET_NO":"999","BSTAR":"0.00003713100000","OBJECT_TYPE":"PAYLOAD","MEAN_MOTION":"15.06404396","GP_ID":"185791796","REV_AT_EPOCH":"5241","TIME_SYSTEM":"UTC","INCLINATION":"53.0557","ECCENTRICITY":"0.00009770","DECAY_DATE":null,"SEMIMAJOR_AXIS":"6925.335","PERIAPSIS":"546.523","RA_OF_ASC_NODE":"339.0783","SITE":"AFETR","EPOCH":"2021-09-29T11:04:18.188832","APOAPSIS":"547.877","CENTER_NAME":"EARTH","TLE_LINE2":"2 46725  53.0557 339.0783 0000977  97.9723 262.1377 15.06404396 52412","FILE":"3134986","OBJECT_NAME":"STARLINK-1828","MEAN_ELEMENT_THEORY":"SGP4","TLE_LINE1":"1 46725U 20073BH  21272.46132163  .00000272  00000-0  37131-4 0  9996","REF_FRAME":"TEME","MEAN_MOTION_DOT":"0.00000272"},{"ECCENTRICITY":"0.00073560","INCLINATION":"53.0565","GP_ID":"185791547","TIME_SYSTEM":"UTC","REV_AT_EPOCH":"5261","OBJECT_TYPE":"PAYLOAD","MEAN_MOTION":"15.06390255","EPHEMERIS_TYPE":"0","MEAN_MOTION_DDOT":"0.0000000000000","ELEMENT_SET_NO":"999","BSTAR":"0.00050556000000","ARG_OF_PERICENTER":"210.5085","CLASSIFICATION_TYPE":"U","RCS_SIZE":"LARGE","COUNTRY_CODE":"US","OBJECT_ID":"2020-073BJ","NORAD_CAT_ID":"46726","MEAN_ANOMALY":"149.5476","LAUNCH_DATE":"2020-10-18","PERIOD":"95.593","MEAN_MOTION_DOT":"0.00007257","REF_FRAME":"TEME","FILE":"3134986","OBJECT_NAME":"STARLINK-1829","MEAN_ELEMENT_THEORY":"SGP4","TLE_LINE1":"1 46726U 20073BJ  21272.42033066  .00007257  00000-0  50556-3 0  9990","TLE_LINE2":"2 46726  53.0565 324.2653 0007356 210.5085 149.5476 15.06390255 52614","EPOCH":"2021-09-29T10:05:16.569024","SITE":"AFETR","APOAPSIS":"552.338","CENTER_NAME":"EARTH","DECAY_DATE":null,"SEMIMAJOR_AXIS":"6925.378","PERIAPSIS":"542.149","RA_OF_ASC_NODE":"324.2653"},{"MEAN_MOTION_DOT":"0.00000463","OBJECT_NAME":"STARLINK-1830","FILE":"3134986","MEAN_ELEMENT_THEORY":"SGP4","TLE_LINE1":"1 46727U 20073BK  21272.37655054  .00000463  00000-0  49973-4 0  9996","REF_FRAME":"TEME","EPOCH":"2021-09-29T09:02:13.966656","SITE":"AFETR","APOAPSIS":"548.007","CENTER_NAME":"EARTH","TLE_LINE2":"2 46727  53.0535 299.4652 0001133  85.4708 274.6411 15.06397188 52961","DECAY_DATE":null,"PERIAPSIS":"546.438","SEMIMAJOR_AXIS":"6925.357","RA_OF_ASC_NODE":"299.4652","INCLINATION":"53.0535","ECCENTRICITY":"0.00011330","OBJECT_TYPE":"PAYLOAD","MEAN_MOTION":"15.06397188","GP_ID":"185792798","TIME_SYSTEM":"UTC","REV_AT_EPOCH":"5296","ARG_OF_PERICENTER":"85.4708","CLASSIFICATION_TYPE":"U","EPHEMERIS_TYPE":"0","ELEMENT_SET_NO":"999","MEAN_MOTION_DDOT":"0.0000000000000","BSTAR":"0.00004997300000","OBJECT_ID":"2020-073BK","MEAN_ANOMALY":"274.6411","NORAD_CAT_ID":"46727","LAUNCH_DATE":"2020-10-18","PERIOD":"95.592","RCS_SIZE":"LARGE","COUNTRY_CODE":"US"},{"FILE":"3135321","MEAN_ELEMENT_THEORY":"SGP4","OBJECT_NAME":"STARLINK-1831","TLE_LINE1":"1 46728U 20073BL  21272.69196088  .00323408  00000-0  18660-1 0  9992","REF_FRAME":"TEME","MEAN_MOTION_DOT":"0.00323408","DECAY_DATE":null,"SEMIMAJOR_AXIS":"6913.386","PERIAPSIS":"533.965","RA_OF_ASC_NODE":"312.9799","APOAPSIS":"536.538","EPOCH":"2021-09-29T16:36:25.420032","SITE":"AFETR","CENTER_NAME":"EARTH","TLE_LINE2":"2 46728  53.0540 312.9799 0001861 143.8138 216.2979 15.10311471 53277","MEAN_MOTION":"15.10311471","OBJECT_TYPE":"PAYLOAD","GP_ID":"185801783","REV_AT_EPOCH":"5327","TIME_SYSTEM":"UTC","INCLINATION":"53.0540","ECCENTRICITY":"0.00018610","NORAD_CAT_ID":"46728","MEAN_ANOMALY":"216.2979","OBJECT_ID":"2020-073BL","PERIOD":"95.345","LAUNCH_DATE":"2020-10-18","RCS_SIZE":"LARGE","COUNTRY_CODE":"US","ARG_OF_PERICENTER":"143.8138","CLASSIFICATION_TYPE":"U","EPHEMERIS_TYPE":"0","BSTAR":"0.01866000000000","ELEMENT_SET_NO":"999","MEAN_MOTION_DDOT":"0.0000000000000"}];
